NORAD_CAT_ID,OBJECT_NAME,OBJECT_TYPE,EPOCH,MEAN_MOTION,ECCENTRICITY,INCLINATION,RA_OF_ASC_NODE,ARG_OF_PERICENTER,MEAN_ANOMALY,BSTAR,MEAN_MOTION_DOT,MEAN_MOTION_DDOT,TLE_LINE0,TLE_LINE1,TLE_LINE2,SEMIMAJOR_AXIS,PERIOD,APOGEE,PERIGEE,DECAYED
49428.0,STARLINK-3121,PAYLOAD,2021-11-29 14:00:01,15.74630031,0.0001953,53.2176,53.5903,29.9538,142.4468,-0.0060251,-0.00817793,0.0,0 STARLINK-3121,1 49428U 21104W   21333.58334491 -.00817793  00000-0 -60251-2 0  9997,2 49428  53.2176  53.5903 0001953  29.9538 142.4468 15.74630031  3194,6723.821,91.45,346.999,344.37300000000016,0.0
49428.0,STARLINK-3121,PAYLOAD,2021-11-29 22:00:00,15.7404626,0.0001573,53.2174,51.9366,38.1101,224.5788,-0.0062153999999999,-0.00821865,0.0,0 STARLINK-3121,1 49428U 21104W   21333.91667824 -.00821865  00000-0 -62154-2 0  9992,2 49428  53.2174  51.9366 0001573  38.1101 224.5788 15.74046260  3858,6725.484,91.484,348.406,346.291,0.0
49428.0,STARLINK-3121,PAYLOAD,2021-11-30 06:00:00,15.73290817,0.0001818,53.2175,50.2851,31.5381,320.7586,-0.00096775,-0.00134816,0.0,0 STARLINK-3121,1 49428U 21104W   21334.25001157 -.00134816  00000-0 -96775-3 0  9991,2 49428  53.2175  50.2851 0001818  31.5381 320.7586 15.73290817  3908,6727.636,91.528,350.724,348.278,0.0
49428.0,STARLINK-3121,PAYLOAD,2021-11-30 10:00:00,15.73202904,0.0001652,53.2174,49.4614,353.8759,222.9311,1.9094e-05,2.060000000000001e-05,0.0,0 STARLINK-3121,1 49428U 21104W   21334.41667824  .00002060  00000-0  19094-4 0  9991,2 49428  53.2174  49.4614 0001652 353.8759 222.9311 15.73202904  3335,6727.887,91.533,350.86300000000006,348.64,0.0
49428.0,STARLINK-3121,PAYLOAD,2021-11-30 16:00:00,15.73266349,0.0001357,53.2184,48.2251,350.452,203.1539,-0.00015497,-0.00022373,0.0,0 STARLINK-3121,1 49428U 21104W   21334.66667824 -.00022373  00000-0 -15497-3 0  9991,2 49428  53.2184  48.2251 0001357 350.4520 203.1539 15.73266349  3977,6727.706,91.529,350.4840000000001,348.658,0.0
49428.0,STARLINK-3121,PAYLOAD,2021-11-30 22:00:00,15.73241325,0.000125,53.2188,46.9863,355.8005,174.5618,5.355599999999998e-06,1.33e-06,0.0,0 STARLINK-3121,1 49428U 21104W   21334.91667824  .00000133  00000-0  53556-5 0  9997,2 49428  53.2188  46.9863 0001250 355.8005 174.5618 15.73241325  3419,6727.776999999999,91.531,350.483,348.801,0.0
49428.0,STARLINK-3121,PAYLOAD,2021-12-01 06:00:00,15.73304844,0.0001031,53.2184,45.3357,356.4522,262.8156,-0.0014282,-0.00197305,0.0,0 STARLINK-3121,1 49428U 21104W   21335.25001157 -.00197305  00000-0 -14282-2 0  9996,2 49428  53.2184  45.3357 0001031 356.4522 262.8156 15.73304844  4060,6727.596,91.527,350.155,348.76800000000014,0.0
49428.0,STARLINK-3121,PAYLOAD,2021-12-01 14:00:01,15.73214493,0.000153,53.219,43.6889,11.4202,336.8263,0.00037145,0.00051866,0.0,0 STARLINK-3121,1 49428U 21104W   21335.58334491  .00051866  00000-0  37145-3 0  9995,2 49428  53.2190  43.6889 0001530  11.4202 336.8263 15.73214493  4112,6727.854,91.532,350.74800000000016,348.689,0.0
49428.0,STARLINK-3121,PAYLOAD,2021-12-01 22:00:00,15.73272181,0.0001398,53.2188,42.038,14.4238,62.8041,-0.00058872,-0.0008269,0.0,0 STARLINK-3121,1 49428U 21104W   21335.91667824 -.00082690  00000-0 -58872-3 0  9992,2 49428  53.2188  42.0380 0001398  14.4238  62.8041 15.73272181  3579,6727.689,91.529,350.495,348.61400000000015,0.0
49428.0,STARLINK-3121,PAYLOAD,2021-12-02 06:00:00,15.73258752,0.0001413,53.2189,40.3884,28.3088,137.8924,-0.00029698,-0.00042196,0.0,0 STARLINK-3121,1 49428U 21104W   21336.25001157 -.00042196  00000-0 -29698-3 0  9992,2 49428  53.2189  40.3884 0001413  28.3088 137.8924 15.73258752  4229,6727.728,91.53,350.543,348.642,0.0
49428.0,STARLINK-3121,PAYLOAD,2021-12-02 12:00:00,15.73244656,0.0001767,53.2188,39.1529,28.2509,114.6909,-0.00072362,-0.00101162,0.0,0 STARLINK-3121,1 49428U 21104W   21336.50001157 -.00101162  00000-0 -72362-3 0  9995,2 49428  53.2188  39.1529 0001767  28.2509 114.6909 15.73244656  3660,6727.768,91.531,350.82199999999995,348.444,0.0
49428.0,STARLINK-3121,PAYLOAD,2021-12-02 22:00:00,15.73144701,0.0001788,53.2191,37.0897,37.5385,306.5657,0.00014854,0.00020228,0.0,0 STARLINK-3121,1 49428U 21104W   21336.91667824  .00020228  00000-0  14854-3 0  9992,2 49428  53.2191  37.0897 0001788  37.5385 306.5657 15.73144701  4323,6728.053000000001,91.536,351.121,348.715,0.0
49428.0,STARLINK-3121,PAYLOAD,2021-12-03 12:00:00,15.73174237,0.0002078,53.2192,34.205,37.2676,12.3781,0.00020421,0.00028104,0.0,0 STARLINK-3121,1 49428U 21104W   21337.50001157  .00028104  00000-0  20421-3 0  9997,2 49428  53.2192  34.2050 0002078  37.2676  12.3781 15.73174237  3727,6727.969,91.535,351.232,348.436,0.0
49428.0,STARLINK-3121,PAYLOAD,2021-12-03 22:00:00,15.73358693,0.0001935,53.2182,32.1407,35.4038,215.3762,-0.0039369,-0.00523728,0.0,0 STARLINK-3121,1 49428U 21104W   21337.91667824 -.00523728  00000-0 -39369-2 0  9995,2 49428  53.2182  32.1407 0001935  35.4038 215.3762 15.73358693  3715,6727.443,91.524,350.61,348.006,0.0
49428.0,STARLINK-3121,PAYLOAD,2021-12-04 00:00:02,15.73192353,0.0001898,53.2186,31.7288,40.1044,323.006,0.00054623,0.00076719,0.0,0 STARLINK-3121,1 49428U 21104W   21338.00002315  .00076719  00000-0  54623-3 0  9996,2 49428  53.2186  31.7288 0001898  40.1044 323.0060 15.73192353  4492,6727.917,91.534,351.059,348.505,0.0
49428.0,STARLINK-3121,PAYLOAD,2021-12-04 06:00:00,15.73280195,0.0001888,53.2188,30.4925,38.5759,301.1658,-0.00062491,-0.0008772,0.0,0 STARLINK-3121,1 49428U 21104W   21338.25001157 -.00087720  00000-0 -62491-3 0  9994,2 49428  53.2188  30.4925 0001888  38.5759 301.1658 15.73280195  3762,6727.667,91.529,350.802,348.261,0.0
49428.0,STARLINK-3121,PAYLOAD,2021-12-04 10:00:00,15.73233881,0.0002035,53.2186,29.6689,35.0396,169.2023,-0.00041954,-0.00059178,0.0,0 STARLINK-3121,1 49428U 21104W   21338.41667824 -.00059178  00000-0 -41954-3 0  9998,2 49428  53.2186  29.6689 0002035  35.0396 169.2023 15.73233881  4569,6727.799,91.531,351.033,348.2940000000001,0.0
49428.0,STARLINK-3121,PAYLOAD,2021-12-04 22:00:00,15.73228572,0.0001822,53.2189,27.1931,31.4679,126.1842,-0.00035558,-0.0005029,0.0,0 STARLINK-3121,1 49428U 21104W   21338.91667824 -.00050290  00000-0 -35558-3 0  9992,2 49428  53.2189  27.1931 0001822  31.4679 126.1842 15.73228572  4643,6727.814,91.532,350.905,348.45300000000015,0.0
49428.0,STARLINK-3121,PAYLOAD,2021-12-05 14:00:01,15.73158895,0.0002095,53.2188,23.8961,25.6616,309.843,0.00048729,0.00068207,0.0,0 STARLINK-3121,1 49428U 21104W   21339.58334491  .00068207  00000-0  48729-3 0  9996,2 49428  53.2188  23.8961 0002095  25.6616 309.8430 15.73158895  4741,6728.012,91.536,351.287,348.468,0.0
49428.0,STARLINK-3121,PAYLOAD,2021-12-05 22:00:00,15.73200543,0.0001778,53.2187,22.2447,24.9522,39.4675,-0.00043161,-0.00060763,0.0,0 STARLINK-3121,1 49428U 21104W   21339.91667824 -.00060763  00000-0 -43161-3 0  9998,2 49428  53.2187  22.2447 0001778  24.9522  39.4675 15.73200543  4797,6727.894,91.533,350.955,348.56199999999984,0.0
49428.0,STARLINK-3121,PAYLOAD,2021-12-06 14:00:01,15.73147813,0.0002049,53.2184,18.9478,20.6119,221.6665,0.00051012,0.00071425,0.0,0 STARLINK-3121,1 49428U 21104W   21340.58335648  .00071425  00000-0  51012-3 0  9998,2 49428  53.2184  18.9478 0002049  20.6119 221.6665 15.73147813  4904,6728.044,91.536,351.288,348.53,0.0
49428.0,STARLINK-3121,PAYLOAD,2021-12-06 22:00:00,15.73164689,0.0001862,53.2187,17.2963,24.5428,306.5672,0.00037073,0.00051652,0.0,0 STARLINK-3121,1 49428U 21104W   21340.91667824  .00051652  00000-0  37073-3 0  9990,2 49428  53.2187  17.2963 0001862  24.5428 306.5672 15.73164689  4952,6727.996,91.535,351.11400000000015,348.608,0.0
49428.0,STARLINK-3121,PAYLOAD,2021-12-07 14:00:01,15.73200661,0.000221,53.2188,13.9992,23.2765,125.6912,0.00044146,0.00061798,0.0,0 STARLINK-3121,1 49428U 21104W   21341.58334491  .00061798  00000-0  44146-3 0  9996,2 49428  53.2188  13.9992 0002210  23.2765 125.6912 15.73200661  3717,6727.893,91.533,351.245,348.271,0.0
49428.0,STARLINK-3121,PAYLOAD,2021-12-07 22:00:00,15.7323486,0.0001938,53.2188,12.3476,23.4778,214.4466,-0.00033817,-0.00047886,0.0,0 STARLINK-3121,1 49428U 21104W   21341.91667824 -.00047886  00000-0 -33817-3 0  9999,2 49428  53.2188  12.3476 0001938  23.4778 214.4466 15.73234860  5114,6727.795999999999,91.531,350.965,348.357,0.0
49428.0,STARLINK-3121,PAYLOAD,2021-12-08 14:00:01,15.73187782,0.0002221,53.2185,9.0507,19.3562,36.4433,0.0003389,0.00047187,0.0,0 STARLINK-3121,1 49428U 21104W   21342.58334491  .00047187  00000-0  33890-3 0  9997,2 49428  53.2185   9.0507 0002221  19.3562  36.4433 15.73187782  5217,6727.93,91.534,351.289,348.301,0.0
49428.0,STARLINK-3121,PAYLOAD,2021-12-08 22:00:00,15.73189288,0.0001984,53.2189,7.3992,22.0797,122.6596,0.00042775,0.00059815,0.0,0 STARLINK-3121,1 49428U 21104W   21342.91667824  .00059815  00000-0  42775-3 0  9996,2 49428  53.2189   7.3992 0001984  22.0797 122.6596 15.73189288  3710,6727.926,91.534,351.126,348.456,0.0
49428.0,STARLINK-3121,PAYLOAD,2021-12-09 06:00:00,15.73237708,0.0002173,53.2193,5.7507,24.4448,209.2309,-0.00011386,-0.00016597,0.0,0 STARLINK-3121,1 49428U 21104W   21343.25001157 -.00016597  00000-0 -11386-3 0  9991,2 49428  53.2193   5.7507 0002173  24.4448 209.2309 15.73237708  5323,6727.788000000001,91.531,351.115,348.191,0.0
49428.0,STARLINK-3121,PAYLOAD,2021-12-09 22:00:00,15.7317815,0.0002245,53.219,2.4505,31.5435,20.0948,0.00032718,0.00045506,0.0,0 STARLINK-3121,1 49428U 21104W   21343.91667824  .00045506  00000-0  32718-3 0  9995,2 49428  53.2190   2.4505 0002245  31.5435  20.0948 15.73178150  3687,6727.956999999999,91.534,351.333,348.31199999999984,0.0
49428.0,STARLINK-3121,PAYLOAD,2021-12-10 14:00:01,15.73216173,0.000249,53.2186,359.1539,28.7385,200.753,0.00011109,0.00015009,0.0,0 STARLINK-3121,1 49428U 21104W   21344.58334491  .00015009  00000-0  11109-3 0  9996,2 49428  53.2186 359.1539 0002490  28.7385 200.7530 15.73216173  5533,6727.849,91.532,351.389,348.039,0.0
